start=new Date('2023-05-11T00:00:00.000Z').valueOf();
sats=[{"LAUNCH_DATE":"2022-05-13","EPHEMERIS_TYPE":"0","ELEMENT_SET_NO":"999","EPOCH":"2023-05-10T04:21:11.549088","OBJECT_NAME":"STARLINK-3845","SEMIMAJOR_AXIS":"6917.875","ECCENTRICITY":"0.00012350","ARG_OF_PERICENTER":"95.2291","PERIAPSIS":"538.886","BSTAR":"0.00010388000000","INCLINATION":"53.2167","TLE_LINE2":"2 52541  53.2167  98.2065 0001235  95.2291 264.8842 15.08841658 55192","REV_AT_EPOCH":"5519","PERIOD":"95.437","MEAN_MOTION":"15.08841658","SITE":"AFWTR","MEAN_ELEMENT_THEORY":"SGP4","DECAY_DATE":null,"MEAN_ANOMALY":"264.8842","CLASSIFICATION_TYPE":"U","RA_OF_ASC_NODE":"98.2065","TIME_SYSTEM":"UTC","MEAN_MOTION_DOT":"0.00001366","NORAD_CAT_ID":"52541","REF_FRAME":"TEME","OBJECT_ID":"2022-051J","MEAN_MOTION_DDOT":"0.0000000000000","GP_ID":"231535408","RCS_SIZE":"LARGE","OBJECT_TYPE":"PAYLOAD","CENTER_NAME":"EARTH","COUNTRY_CODE":"US","APOAPSIS":"540.595","TLE_LINE1":"1 52541U 22051J   23130.18138367  .00001366  00000-0  10388-3 0  9992","FILE":"3904555"},{"MEAN_ELEMENT_THEORY":"SGP4","MEAN_ANOMALY":"265.7509","DECAY_DATE":null,"SITE":"AFWTR","PERIOD":"95.437","MEAN_MOTION":"15.08852844","TLE_LINE2":"2 52542  53.2151  92.1883 0001495  94.3654 265.7509 15.08852844 55377","REV_AT_EPOCH":"5537","INCLINATION":"53.2151","BSTAR":"0.00070909000000","PERIAPSIS":"538.672","ARG_OF_PERICENTER":"94.3654","ECCENTRICITY":"0.00014950","SEMIMAJOR_AXIS":"6917.841","OBJECT_NAME":"STARLINK-3937","EPOCH":"2023-05-10T09:47:45.374784","ELEMENT_SET_NO":"999","EPHEMERIS_TYPE":"0","LAUNCH_DATE":"2022-05-13","FILE":"3904769","APOAPSIS":"540.740","TLE_LINE1":"1 52542U 22051K   23130.40816406  .00011019  00000-0  70909-3 0  9996","CENTER_NAME":"EARTH","OBJECT_TYPE":"PAYLOAD","COUNTRY_CODE":"US","RCS_SIZE":"LARGE","MEAN_MOTION_DDOT":"0.0000000000000","GP_ID":"231543094","REF_FRAME":"TEME","OBJECT_ID":"2022-051K","MEAN_MOTION_DOT":"0.00011019","NORAD_CAT_ID":"52542","TIME_SYSTEM":"UTC","CLASSIFICATION_TYPE":"U","RA_OF_ASC_NODE":"92.1883"},{"FILE":"3904555","CENTER_NAME":"EARTH","OBJECT_TYPE":"PAYLOAD","COUNTRY_CODE":"US","APOAPSIS":"540.657","TLE_LINE1":"1 52543U 22051L   23130.22049141  .00000602  00000-0  55904-4 0  9996","RCS_SIZE":"LARGE","REF_FRAME":"TEME","OBJECT_ID":"2022-051L","MEAN_MOTION_DDOT":"0.0000000000000","GP_ID":"231534421","TIME_SYSTEM":"UTC","MEAN_MOTION_DOT":"0.00000602","NORAD_CAT_ID":"52543","CLASSIFICATION_TYPE":"U","RA_OF_ASC_NODE":"93.0333","SITE":"AFWTR","MEAN_ELEMENT_THEORY":"SGP4","MEAN_ANOMALY":"272.5605","DECAY_DATE":null,"TLE_LINE2":"2 52543  53.2171  93.0333 0001309  87.5537 272.5605 15.08838124 55275","REV_AT_EPOCH":"5527","PERIOD":"95.438","MEAN_MOTION":"15.08838124","BSTAR":"0.00005590400000","INCLINATION":"53.2171","PERIAPSIS":"538.846","SEMIMAJOR_AXIS":"6917.886","OBJECT_NAME":"STARLINK-3926","ECCENTRICITY":"0.00013090","ARG_OF_PERICENTER":"87.5537","ELEMENT_SET_NO":"999","EPOCH":"2023-05-10T05:17:30.457824","LAUNCH_DATE":"2022-05-13","EPHEMERIS_TYPE":"0"},{"TIME_SYSTEM":"UTC","NORAD_CAT_ID":"52544","MEAN_MOTION_DOT":"0.00001108","RA_OF_ASC_NODE":"96.9277","CLASSIFICATION_TYPE":"U","RCS_SIZE":"LARGE","OBJECT_ID":"2022-051M","REF_FRAME":"TEME","GP_ID":"231535670","MEAN_MOTION_DDOT":"0.0000000000000","FILE":"3904555","COUNTRY_CODE":"US","OBJECT_TYPE":"PAYLOAD","CENTER_NAME":"EARTH","TLE_LINE1":"1 52544U 22051M   23130.41779416  .00001108  00000-0  91374-4 0  9996","APOAPSIS":"545.518","ELEMENT_SET_NO":"999","EPOCH":"2023-05-10T10:01:37.415424","LAUNCH_DATE":"2022-05-13","EPHEMERIS_TYPE":"0","PERIAPSIS":"543.969","SEMIMAJOR_AXIS":"6922.879","OBJECT_NAME":"STARLINK-3944","ECCENTRICITY":"0.00011190","ARG_OF_PERICENTER":"102.4830","REV_AT_EPOCH":"5523","TLE_LINE2":"2 52544  53.2172  96.9277 0001119 102.4830 257.6287 15.07206240 55231","MEAN_MOTION":"15.07206240","PERIOD":"95.541","BSTAR":"0.00009137400000","INCLINATION":"53.2172","SITE":"AFWTR","DECAY_DATE":null,"MEAN_ANOMALY":"257.6287","MEAN_ELEMENT_THEORY":"SGP4"},{"CLASSIFICATION_TYPE":"U","RA_OF_ASC_NODE":"93.0473","TIME_SYSTEM":"UTC","MEAN_MOTION_DOT":"0.00001248","NORAD_CAT_ID":"52545","REF_FRAME":"TEME","OBJECT_ID":"2022-051N","MEAN_MOTION_DDOT":"0.0000000000000","GP_ID":"231535910","RCS_SIZE":"LARGE","OBJECT_TYPE":"PAYLOAD","CENTER_NAME":"EARTH","COUNTRY_CODE":"US","APOAPSIS":"540.634","TLE_LINE1":"1 52545U 22051N   23130.21680933  .00001248  00000-0  96470-4 0  9997","FILE":"3904555","LAUNCH_DATE":"2022-05-13","EPHEMERIS_TYPE":"0","ELEMENT_SET_NO":"999","EPOCH":"2023-05-10T05:12:12.326112","SEMIMAJOR_AXIS":"6917.879","OBJECT_NAME":"STARLINK-3939","ECCENTRICITY":"0.00012870","ARG_OF_PERICENTER":"96.9941","PERIAPSIS":"538.853","BSTAR":"0.00009647000000","INCLINATION":"53.2166","TLE_LINE2":"2 52545  53.2166  93.0473 0001287  96.9941 263.1198 15.08840534 55275","REV_AT_EPOCH":"5527","PERIOD":"95.438","MEAN_MOTION":"15.08840534","SITE":"AFWTR","MEAN_ELEMENT_THEORY":"SGP4","MEAN_ANOMALY":"263.1198","DECAY_DATE":null},{"RA_OF_ASC_NODE":"92.7618","CLASSIFICATION_TYPE":"U","TIME_SYSTEM":"UTC","NORAD_CAT_ID":"52546","MEAN_MOTION_DOT":"0.00002478","OBJECT_ID":"2022-051P","REF_FRAME":"TEME","GP_ID":"231534675","MEAN_MOTION_DDOT":"0.0000000000000","RCS_SIZE":"LARGE","COUNTRY_CODE":"US","OBJECT_TYPE":"PAYLOAD","CENTER_NAME":"EARTH","TLE_LINE1":"1 52546U 22051P   23130.26126306  .00002478  00000-0  16633-3 0  9990","APOAPSIS":"535.709","FILE":"3904555","LAUNCH_DATE":"2022-05-13","EPHEMERIS_TYPE":"0","ELEMENT_SET_NO":"999","EPOCH":"2023-05-10T06:16:13.128384","SEMIMAJOR_AXIS":"6912.861","OBJECT_NAME":"STARLINK-3948","ECCENTRICITY":"0.00014220","ARG_OF_PERICENTER":"91.0394","PERIAPSIS":"533.743","BSTAR":"0.00016633000000","INCLINATION":"53.2173","REV_AT_EPOCH":"5528","TLE_LINE2":"2 52546  53.2173  92.7618 0001422  91.0394 269.0761 15.10483707 55280","MEAN_MOTION":"15.10483707","PERIOD":"95.334","SITE":"AFWTR","MEAN_ANOMALY":"269.0761","DECAY_DATE":null,"MEAN_ELEMENT_THEORY":"SGP4"},{"ELEMENT_SET_NO":"999","EPOCH":"2023-05-10T04:15:53.788896","LAUNCH_DATE":"2022-05-13","EPHEMERIS_TYPE":"0","PERIAPSIS":"539.137","ECCENTRICITY":"0.00009120","SEMIMAJOR_AXIS":"6917.903","OBJECT_NAME":"STARLINK-3869","ARG_OF_PERICENTER":"98.8818","TLE_LINE2":"2 52547  53.2171  98.2186 0000912  98.8818 261.2278 15.08832638 55194","REV_AT_EPOCH":"5519","PERIOD":"95.438","MEAN_MOTION":"15.08832638","BSTAR":"0.00010413000000","INCLINATION":"53.2171","SITE":"AFWTR","MEAN_ELEMENT_THEORY":"SGP4","DECAY_DATE":null,"MEAN_ANOMALY":"261.2278","TIME_SYSTEM":"UTC","MEAN_MOTION_DOT":"0.00001370","NORAD_CAT_ID":"52547","CLASSIFICATION_TYPE":"U","RA_OF_ASC_NODE":"98.2186","RCS_SIZE":"LARGE","REF_FRAME":"TEME","OBJECT_ID":"2022-051Q","MEAN_MOTION_DDOT":"0.0000000000000","GP_ID":"231534923","FILE":"3904555","OBJECT_TYPE":"PAYLOAD","CENTER_NAME":"EARTH","COUNTRY_CODE":"US","APOAPSIS":"540.399","TLE_LINE1":"1 52547U 22051Q   23130.17770589  .00001370  00000-0  10413-3 0  9999"},{"FILE":"3904555","COUNTRY_CODE":"US","OBJECT_TYPE":"PAYLOAD","CENTER_NAME":"EARTH","TLE_LINE1":"1 52548U 22051R   23130.18737503  .00005599  00000-0  36966-3 0  9998","APOAPSIS":"540.597","TIME_SYSTEM":"UTC","NORAD_CAT_ID":"52548","MEAN_MOTION_DOT":"0.00005599","RA_OF_ASC_NODE":"93.1797","CLASSIFICATION_TYPE":"U","RCS_SIZE":"LARGE","OBJECT_ID":"2022-051R","REF_FRAME":"TEME","GP_ID":"231535170","MEAN_MOTION_DDOT":"0.0000000000000","REV_AT_EPOCH":"5527","TLE_LINE2":"2 52548  53.2160  93.1797 0001196  96.4159 263.6970 15.08832007 55276","MEAN_MOTION":"15.08832007","PERIOD":"95.438","BSTAR":"0.00036966000000","INCLINATION":"53.2160","SITE":"AFWTR","MEAN_ANOMALY":"263.6970","DECAY_DATE":null,"MEAN_ELEMENT_THEORY":"SGP4","ELEMENT_SET_NO":"999","EPOCH":"2023-05-10T04:29:49.202592","LAUNCH_DATE":"2022-05-13","EPHEMERIS_TYPE":"0","PERIAPSIS":"538.942","SEMIMAJOR_AXIS":"6917.905","ECCENTRICITY":"0.00011960","OBJECT_NAME":"STARLINK-3931","ARG_OF_PERICENTER":"96.4159"},{"REV_AT_EPOCH":"5537","TLE_LINE2":"2 52549  53.2170  92.2024 0001159  94.4435 265.6690 15.08842462 55373","MEAN_MOTION":"15.08842462","PERIOD":"95.437","BSTAR":"0.00015039000000","INCLINATION":"53.2170","SITE":"AFWTR","MEAN_ANOMALY":"265.6690","DECAY_DATE":null,"MEAN_ELEMENT_THEORY":"SGP4","ELEMENT_SET_NO":"999","EPOCH":"2023-05-10T09:42:27.726912","LAUNCH_DATE":"2022-05-13","EPHEMERIS_TYPE":"0","PERIAPSIS":"538.936","ECCENTRICITY":"0.00011590","SEMIMAJOR_AXIS":"6917.873","OBJECT_NAME":"STARLINK-3935","ARG_OF_PERICENTER":"94.4435","FILE":"3904769","COUNTRY_CODE":"US","OBJECT_TYPE":"PAYLOAD","CENTER_NAME":"EARTH","TLE_LINE1":"1 52549U 22051S   23130.40448758  .00002107  00000-0  15039-3 0  9995","APOAPSIS":"540.540","TIME_SYSTEM":"UTC","NORAD_CAT_ID":"52549","MEAN_MOTION_DOT":"0.00002107","RA_OF_ASC_NODE":"92.2024","CLASSIFICATION_TYPE":"U","RCS_SIZE":"LARGE","OBJECT_ID":"2022-051S","REF_FRAME":"TEME","GP_ID":"231542894","MEAN_MOTION_DDOT":"0.0000000000000"},{"BSTAR":"0.00019554000000","INCLINATION":"53.2163","TLE_LINE2":"2 52550  53.2163  93.1490 0001172 106.5361 253.5760 15.08842099 55271","REV_AT_EPOCH":"5527","PERIOD":"95.437","MEAN_MOTION":"15.08842099","SITE":"AFWTR","MEAN_ELEMENT_THEORY":"SGP4","DECAY_DATE":null,"MEAN_ANOMALY":"253.5760","LAUNCH_DATE":"2022-05-13","EPHEMERIS_TYPE":"0","ELEMENT_SET_NO":"999","EPOCH":"2023-05-10T04:40:24.466368","SEMIMAJOR_AXIS":"6917.874","OBJECT_NAME":"STARLINK-3965","ECCENTRICITY":"0.00011720","ARG_OF_PERICENTER":"106.5361","PERIAPSIS":"538.928","OBJECT_TYPE":"PAYLOAD","CENTER_NAME":"EARTH","COUNTRY_CODE":"US","APOAPSIS":"540.550","TLE_LINE1":"1 52550U 22051T   23130.19472762  .00002826  00000-0  19554-3 0  9999","FILE":"3904555","CLASSIFICATION_TYPE":"U","RA_OF_ASC_NODE":"93.1490","TIME_SYSTEM":"UTC","MEAN_MOTION_DOT":"0.00002826","NORAD_CAT_ID":"52550","REF_FRAME":"TEME","OBJECT_ID":"2022-051T","MEAN_MOTION_DDOT":"0.0000000000000","GP_ID":"231534174","RCS_SIZE":"LARGE"}];
